start=new Date('2021-08-25T00:00:00.000Z').valueOf();
sats=[{"MEAN_MOTION_DDOT":"0.0000000000000","OBJECT_NAME":"STARLINK-1838","COUNTRY_CODE":"US","APOAPSIS":"548.505","TLE_LINE2":"2 47129  53.0539 176.7833 0001887  72.4636 287.6559 15.06405055 42017","PERIAPSIS":"545.891","PERIOD":"95.592","EPOCH":"2021-08-24T05:16:29.865504","ELEMENT_SET_NO":"999","RA_OF_ASC_NODE":"176.7833","ARG_OF_PERICENTER":"72.4636","TLE_LINE1":"1 47129U 20088H   21236.21979011 -.00000777  00000-0 -33266-4 0  9992","REF_FRAME":"TEME","CENTER_NAME":"EARTH","LAUNCH_DATE":"2020-11-25","MEAN_ANOMALY":"287.6559","MEAN_ELEMENT_THEORY":"SGP4","EPHEMERIS_TYPE":"0","BSTAR":"-0.00003326600000","SITE":"AFETR","REV_AT_EPOCH":"4201","RCS_SIZE":"LARGE","OBJECT_TYPE":"PAYLOAD","ECCENTRICITY":"0.00018870","DECAY_DATE":null,"MEAN_MOTION":"15.06405055","CLASSIFICATION_TYPE":"U","GP_ID":"183361049","SEMIMAJOR_AXIS":"6925.333","TIME_SYSTEM":"UTC","INCLINATION":"53.0539","OBJECT_ID":"2020-088H","FILE":"3102457","MEAN_MOTION_DOT":"-0.00000777","NORAD_CAT_ID":"47129"},{"MEAN_ELEMENT_THEORY":"SGP4","EPHEMERIS_TYPE":"0","ARG_OF_PERICENTER":"45.3349","TLE_LINE1":"1 47130U 20088J   21236.26956657  .00000772  00000-0  70697-4 0  9992","REF_FRAME":"TEME","CENTER_NAME":"EARTH","LAUNCH_DATE":"2020-11-25","MEAN_ANOMALY":"314.7737","CLASSIFICATION_TYPE":"U","SEMIMAJOR_AXIS":"6925.352","GP_ID":"183361289","TIME_SYSTEM":"UTC","INCLINATION":"53.0534","OBJECT_ID":"2020-088J","FILE":"3102457","NORAD_CAT_ID":"47130","MEAN_MOTION_DOT":"0.00000772","BSTAR":"0.00007069700000","SITE":"AFETR","RCS_SIZE":"LARGE","REV_AT_EPOCH":"4173","OBJECT_TYPE":"PAYLOAD","ECCENTRICITY":"0.00011900","DECAY_DATE":null,"MEAN_MOTION":"15.06398795","COUNTRY_CODE":"US","OBJECT_NAME":"STARLINK-1839","MEAN_MOTION_DDOT":"0.0000000000000","EPOCH":"2021-08-24T06:28:10.551648","PERIOD":"95.592","ELEMENT_SET_NO":"999","RA_OF_ASC_NODE":"196.5557","APOAPSIS":"548.041","TLE_LINE2":"2 47130  53.0534 196.5557 0001190  45.3349 314.7737 15.06398795 41734","PERIAPSIS":"546.393"},{"CLASSIFICATION_TYPE":"U","GP_ID":"183362041","SEMIMAJOR_AXIS":"6891.040","INCLINATION":"53.0552","TIME_SYSTEM":"UTC","OBJECT_ID":"2020-088K","FILE":"3102457","NORAD_CAT_ID":"47131","MEAN_MOTION_DOT":"-0.00000707","BSTAR":"-0.00001901500000","SITE":"AFETR","REV_AT_EPOCH":"4229","RCS_SIZE":"LARGE","OBJECT_TYPE":"PAYLOAD","ECCENTRICITY":"0.00084910","DECAY_DATE":null,"MEAN_MOTION":"15.17663938","MEAN_ELEMENT_THEORY":"SGP4","EPHEMERIS_TYPE":"0","ARG_OF_PERICENTER":"48.1296","TLE_LINE1":"1 47131U 20088K   21236.48565936 -.00000707  00000-0 -19015-4 0  9990","REF_FRAME":"TEME","CENTER_NAME":"EARTH","LAUNCH_DATE":"2020-11-25","MEAN_ANOMALY":"312.0422","ELEMENT_SET_NO":"999","PERIOD":"94.883","EPOCH":"2021-08-24T11:39:20.968704","RA_OF_ASC_NODE":"158.4949","APOAPSIS":"518.756","TLE_LINE2":"2 47131  53.0552 158.4949 0008491  48.1296 312.0422 15.17663938 42290","PERIAPSIS":"507.054","COUNTRY_CODE":"US","MEAN_MOTION_DDOT":"0.0000000000000","OBJECT_NAME":"STARLINK-1840"},{"COUNTRY_CODE":"US","OBJECT_NAME":"STARLINK-1843","MEAN_MOTION_DDOT":"0.0000000000000","PERIOD":"95.592","ELEMENT_SET_NO":"999","EPOCH":"2021-08-24T05:05:52.940256","RA_OF_ASC_NODE":"176.9540","PERIAPSIS":"545.636","APOAPSIS":"548.817","TLE_LINE2":"2 47133  53.0553 176.9540 0002297  79.5206 280.6041 15.06395817 42004","MEAN_ELEMENT_THEORY":"SGP4","EPHEMERIS_TYPE":"0","CENTER_NAME":"EARTH","LAUNCH_DATE":"2020-11-25","MEAN_ANOMALY":"280.6041","ARG_OF_PERICENTER":"79.5206","TLE_LINE1":"1 47133U 20088M   21236.21241829  .00000942  00000-0  82157-4 0  9991","REF_FRAME":"TEME","OBJECT_ID":"2020-088M","FILE":"3102457","MEAN_MOTION_DOT":"0.00000942","NORAD_CAT_ID":"47133","CLASSIFICATION_TYPE":"U","SEMIMAJOR_AXIS":"6925.361","GP_ID":"183360299","TIME_SYSTEM":"UTC","INCLINATION":"53.0553","DECAY_DATE":null,"MEAN_MOTION":"15.06395817","BSTAR":"0.00008215700000","SITE":"AFETR","REV_AT_EPOCH":"4200","RCS_SIZE":"LARGE","OBJECT_TYPE":"PAYLOAD","ECCENTRICITY":"0.00022970"},{"MEAN_ELEMENT_THEORY":"SGP4","EPHEMERIS_TYPE":"0","CENTER_NAME":"EARTH","LAUNCH_DATE":"2020-11-25","MEAN_ANOMALY":"86.8279","ARG_OF_PERICENTER":"273.2163","TLE_LINE1":"1 47134U 20088N   21236.25202346  .00000833  00000-0  74902-4 0  9995","REF_FRAME":"TEME","OBJECT_ID":"2020-088N","FILE":"3102457","NORAD_CAT_ID":"47134","MEAN_MOTION_DOT":"0.00000833","CLASSIFICATION_TYPE":"U","SEMIMAJOR_AXIS":"6925.350","GP_ID":"183360549","INCLINATION":"53.0557","TIME_SYSTEM":"UTC","DECAY_DATE":null,"MEAN_MOTION":"15.06399568","BSTAR":"0.00007490200000","SITE":"AFETR","REV_AT_EPOCH":"4187","RCS_SIZE":"LARGE","OBJECT_TYPE":"PAYLOAD","ECCENTRICITY":"0.00047780","COUNTRY_CODE":"US","OBJECT_NAME":"STARLINK-1844","MEAN_MOTION_DDOT":"0.0000000000000","ELEMENT_SET_NO":"999","PERIOD":"95.592","EPOCH":"2021-08-24T06:02:54.826944","RA_OF_ASC_NODE":"186.6397","PERIAPSIS":"543.906","APOAPSIS":"550.524","TLE_LINE2":"2 47134  53.0557 186.6397 0004778 273.2163  86.8279 15.06399568 41878"},{"FILE":"3102457","OBJECT_ID":"2020-088P","MEAN_MOTION_DOT":"0.00000870","NORAD_CAT_ID":"47135","GP_ID":"183361790","SEMIMAJOR_AXIS":"6925.339","CLASSIFICATION_TYPE":"U","INCLINATION":"53.0558","TIME_SYSTEM":"UTC","MEAN_MOTION":"15.06403124","DECAY_DATE":null,"SITE":"AFETR","BSTAR":"0.00007727200000","OBJECT_TYPE":"PAYLOAD","ECCENTRICITY":"0.00015620","REV_AT_EPOCH":"4205","RCS_SIZE":"LARGE","MEAN_ELEMENT_THEORY":"SGP4","EPHEMERIS_TYPE":"0","LAUNCH_DATE":"2020-11-25","CENTER_NAME":"EARTH","MEAN_ANOMALY":"295.4433","TLE_LINE1":"1 47135U 20088P   21236.53677440  .00000870  00000-0  77272-4 0  9992","ARG_OF_PERICENTER":"64.6718","REF_FRAME":"TEME","ELEMENT_SET_NO":"999","PERIOD":"95.592","EPOCH":"2021-08-24T12:52:57.308160","RA_OF_ASC_NODE":"175.3435","PERIAPSIS":"546.122","TLE_LINE2":"2 47135  53.0558 175.3435 0001562  64.6718 295.4433 15.06403124 42059","APOAPSIS":"548.286","COUNTRY_CODE":"US","OBJECT_NAME":"STARLINK-1845","MEAN_MOTION_DDOT":"0.0000000000000"},{"EPOCH":"2021-08-24T06:29:28.784256","PERIOD":"95.592","ELEMENT_SET_NO":"999","RA_OF_ASC_NODE":"186.5581","PERIAPSIS":"546.106","TLE_LINE2":"2 47136  53.0530 186.5581 0001592  58.9230 301.1915 15.06401555 41879","APOAPSIS":"548.311","COUNTRY_CODE":"US","MEAN_MOTION_DDOT":"0.0000000000000","OBJECT_NAME":"STARLINK-1846","FILE":"3102457","OBJECT_ID":"2020-088Q","MEAN_MOTION_DOT":"-0.00000360","NORAD_CAT_ID":"47136","SEMIMAJOR_AXIS":"6925.344","GP_ID":"183361541","CLASSIFICATION_TYPE":"U","INCLINATION":"53.0530","TIME_SYSTEM":"UTC","MEAN_MOTION":"15.06401555","DECAY_DATE":null,"SITE":"AFETR","BSTAR":"-0.00000525430000","OBJECT_TYPE":"PAYLOAD","ECCENTRICITY":"0.00015920","RCS_SIZE":"LARGE","REV_AT_EPOCH":"4187","MEAN_ELEMENT_THEORY":"SGP4","EPHEMERIS_TYPE":"0","LAUNCH_DATE":"2020-11-25","CENTER_NAME":"EARTH","MEAN_ANOMALY":"301.1915","TLE_LINE1":"1 47136U 20088Q   21236.27047204 -.00000360  00000-0 -52543-5 0  9994","ARG_OF_PERICENTER":"58.9230","REF_FRAME":"TEME"},{"COUNTRY_CODE":"US","OBJECT_NAME":"STARLINK-1849","MEAN_MOTION_DDOT":"0.0000000000000","ELEMENT_SET_NO":"999","PERIOD":"95.592","EPOCH":"2021-08-24T06:04:16.437792","RA_OF_ASC_NODE":"176.6301","PERIAPSIS":"546.125","TLE_LINE2":"2 47137  53.0560 176.6301 0001587  62.7498 297.3653 15.06396634 42019","APOAPSIS":"548.323","MEAN_ELEMENT_THEORY":"SGP4","EPHEMERIS_TYPE":"0","CENTER_NAME":"EARTH","LAUNCH_DATE":"2020-11-25","MEAN_ANOMALY":"297.3653","TLE_LINE1":"1 47137U 20088R   21236.25296803 -.00000889  00000-0 -40796-4 0  9996","ARG_OF_PERICENTER":"62.7498","REF_FRAME":"TEME","FILE":"3102457","OBJECT_ID":"2020-088R","NORAD_CAT_ID":"47137","MEAN_MOTION_DOT":"-0.00000889","GP_ID":"183360800","SEMIMAJOR_AXIS":"6925.359","CLASSIFICATION_TYPE":"U","INCLINATION":"53.0560","TIME_SYSTEM":"UTC","MEAN_MOTION":"15.06396634","DECAY_DATE":null,"SITE":"AFETR","BSTAR":"-0.00004079600000","OBJECT_TYPE":"PAYLOAD","ECCENTRICITY":"0.00015870","REV_AT_EPOCH":"4201","RCS_SIZE":"LARGE"},{"OBJECT_NAME":"STARLINK-1850","MEAN_MOTION_DDOT":"0.0000000000000","COUNTRY_CODE":"US","TLE_LINE2":"2 47138  53.0532 181.1757 0001379  60.6323 299.4803 15.06402509 41960","APOAPSIS":"548.161","PERIAPSIS":"546.251","PERIOD":"95.592","EPOCH":"2021-08-24T08:28:13.323072","ELEMENT_SET_NO":"999","RA_OF_ASC_NODE":"181.1757","TLE_LINE1":"1 47138U 20088S   21236.35293198 -.00000772  00000-0 -32959-4 0  9995","ARG_OF_PERICENTER":"60.6323","REF_FRAME":"TEME","CENTER_NAME":"EARTH","LAUNCH_DATE":"2020-11-25","MEAN_ANOMALY":"299.4803","MEAN_ELEMENT_THEORY":"SGP4","EPHEMERIS_TYPE":"0","SITE":"AFETR","BSTAR":"-0.00003295900000","OBJECT_TYPE":"PAYLOAD","ECCENTRICITY":"0.00013790","REV_AT_EPOCH":"4196","RCS_SIZE":"LARGE","MEAN_MOTION":"15.06402509","DECAY_DATE":null,"GP_ID":"183361050","SEMIMAJOR_AXIS":"6925.341","CLASSIFICATION_TYPE":"U","TIME_SYSTEM":"UTC","INCLINATION":"53.0532","FILE":"3102457","OBJECT_ID":"2020-088S","MEAN_MOTION_DOT":"-0.00000772","NORAD_CAT_ID":"47138"},{"RA_OF_ASC_NODE":"191.4966","EPOCH":"2021-08-24T06:46:00.673536","PERIOD":"95.591","ELEMENT_SET_NO":"999","APOAPSIS":"548.131","TLE_LINE2":"2 47139  53.0549 191.4966 0001409  56.7568 303.3556 15.06418963 41800","PERIAPSIS":"546.180","COUNTRY_CODE":"US","MEAN_MOTION_DDOT":"0.0000000000000","OBJECT_NAME":"STARLINK-1852","TIME_SYSTEM":"UTC","INCLINATION":"53.0549","CLASSIFICATION_TYPE":"U","SEMIMAJOR_AXIS":"6925.290","GP_ID":"183361290","NORAD_CAT_ID":"47139","MEAN_MOTION_DOT":"0.00001361","OBJECT_ID":"2020-088T","FILE":"3102457","REV_AT_EPOCH":"4180","RCS_SIZE":"LARGE","OBJECT_TYPE":"PAYLOAD","ECCENTRICITY":"0.00014090","BSTAR":"0.00011021000000","SITE":"AFETR","DECAY_DATE":null,"MEAN_MOTION":"15.06418963","EPHEMERIS_TYPE":"0","MEAN_ELEMENT_THEORY":"SGP4","REF_FRAME":"TEME","ARG_OF_PERICENTER":"56.7568","TLE_LINE1":"1 47139U 20088T   21236.28195224  .00001361  00000-0  11021-3 0  9998","MEAN_ANOMALY":"303.3556","CENTER_NAME":"EARTH","LAUNCH_DATE":"2020-11-25"}];
